[{"OBJECT_NAME":"TYVAK-182A","OBJECT_ID":"2021-034D","EPOCH":"2026-03-09T17:04:17.866560","MEAN_MOTION":15.0515042,"ECCENTRICITY":0.00048625,"INCLINATION":97.5843,"RA_OF_ASC_NODE":129.3711,"ARG_OF_PERICENTER":316.565,"MEAN_ANOMALY":43.5193,"EPHEMERIS_TYPE":0,"CLASSIFICATION_TYPE":"U","NORAD_CAT_ID":48271,"ELEMENT_SET_NO":999,"REV_AT_EPOCH":26486,"BSTAR":0.00050672592,"MEAN_MOTION_DOT":7.163e-5,"MEAN_MOTION_DDOT":0},{"OBJECT_NAME":"STARLINK-35268","OBJECT_ID":"2025-218V","EPOCH":"2026-03-09T15:08:31.186464","MEAN_MOTION":15.05655017,"ECCENTRICITY":0.0002163,"INCLINATION":97.6029,"RA_OF_ASC_NODE":292.9394,"ARG_OF_PERICENTER":74.6897,"MEAN_ANOMALY":285.4569,"EPHEMERIS_TYPE":0,"CLASSIFICATION_TYPE":"U","NORAD_CAT_ID":65810,"ELEMENT_SET_NO":999,"REV_AT_EPOCH":2496,"BSTAR":0.00029931,"MEAN_MOTION_DOT":4.261e-5,"MEAN_MOTION_DDOT":0}]
